[{"OBJECT_NAME":"STARLINK-35582","OBJECT_ID":"2025-265X","EPOCH":"2026-03-09T13:29:26.996928","MEAN_MOTION":15.27598737,"ECCENTRICITY":0.00036595,"INCLINATION":43.0013,"RA_OF_ASC_NODE":278.6784,"ARG_OF_PERICENTER":295.6523,"MEAN_ANOMALY":64.3951,"EPHEMERIS_TYPE":0,"CLASSIFICATION_TYPE":"U","NORAD_CAT_ID":66537,"ELEMENT_SET_NO":999,"REV_AT_EPOCH":1709,"BSTAR":0.0010915223,"MEAN_MOTION_DOT":0.00029917,"MEAN_MOTION_DDOT":0},{"OBJECT_NAME":"SL-12 DEB","OBJECT_ID":"1985-118X","EPOCH":"2026-03-09T20:04:08.592384","MEAN_MOTION":5.09805619,"ECCENTRICITY":0.52039317,"INCLINATION":64.8062,"RA_OF_ASC_NODE":336.3013,"ARG_OF_PERICENTER":38.0124,"MEAN_ANOMALY":349.2297,"EPHEMERIS_TYPE":0,"CLASSIFICATION_TYPE":"U","NORAD_CAT_ID":25684,"ELEMENT_SET_NO":999,"REV_AT_EPOCH":49620,"BSTAR":0.008873354,"MEAN_MOTION_DOT":7.102e-5,"MEAN_MOTION_DDOT":0}]
